NORAD_CAT_ID,OBJECT_NAME,OBJECT_TYPE,EPOCH,MEAN_MOTION,ECCENTRICITY,INCLINATION,RA_OF_ASC_NODE,ARG_OF_PERICENTER,MEAN_ANOMALY,BSTAR,MEAN_MOTION_DOT,MEAN_MOTION_DDOT,TLE_LINE0,TLE_LINE1,TLE_LINE2,SEMIMAJOR_AXIS,PERIOD,APOGEE,PERIGEE,DECAYED
52606.0,STARLINK-3928,PAYLOAD,2022-12-17 18:30:27,15.08849593,0.0002916,53.2171,167.0017,41.2323,318.8889,2.7129e-05,1.43e-06,0.0,0 STARLINK-3928,1 52606U 22052J   22351.77115220  .00000143  00000-0  27129-4 0  9991,2 52606  53.2171 167.0017 0002916  41.2323 318.8889 15.08849593 33402,6917.851,95.437,541.7330000000002,537.6990000000002,0.0
52606.0,STARLINK-3928,PAYLOAD,2022-12-18 11:59:42,15.08833543,0.0002927,53.2173,163.7306,42.3888,317.733,-1.7414e-05,-5.66e-06,0.0,0 STARLINK-3928,1 52606U 22052J   22352.49980289 -.00000566  00000-0 -17414-4 0  9993,2 52606  53.2173 163.7306 0002927  42.3888 317.7330 15.08833543 33146,6917.9,95.438,541.79,537.74,0.0
52606.0,STARLINK-3928,PAYLOAD,2022-12-18 18:21:15,15.08835794,0.0002942,53.2174,162.5413,42.7077,317.4143,-1.0863e-06,-3.06e-06,0.0,0 STARLINK-3928,1 52606U 22052J   22352.76476149 -.00000306  00000-0 -10863-5 0  9992,2 52606  53.2174 162.5413 0002942  42.7077 317.4143 15.08835794 33558,6917.893,95.438,541.793,537.7230000000002,0.0
52606.0,STARLINK-3928,PAYLOAD,2022-12-18 21:32:01,15.08836629,0.000295,53.2175,161.9466,42.7466,317.3756,4.3365e-06,-2.2e-06,0.0,0 STARLINK-3928,1 52606U 22052J   22352.89724098 -.00000220  00000-0  43365-5 0  9992,2 52606  53.2175 161.9466 0002950  42.7466 317.3756 15.08836629 33200,6917.891,95.438,541.7959999999998,537.715,0.0
52606.0,STARLINK-3928,PAYLOAD,2022-12-19 18:12:01,15.08845246,0.0002996,53.2178,158.0809,44.6233,315.5,3.5499e-05,2.76e-06,0.0,0 STARLINK-3928,1 52606U 22052J   22353.75835436  .00000276  00000-0  35499-4 0  9995,2 52606  53.2178 158.0809 0002996  44.6233 315.5000 15.08845246 33706,6917.864000000001,95.437,541.802,537.6569999999998,0.0
52606.0,STARLINK-3928,PAYLOAD,2022-12-19 22:58:12,15.08834275,0.0002952,53.2177,157.1892,43.9041,316.2185,-6.481e-05,-1.32e-05,0.0,0 STARLINK-3928,1 52606U 22052J   22353.95708436 -.00001320  00000-0 -64810-4 0  9998,2 52606  53.2177 157.1892 0002952  43.9041 316.2185 15.08834275 33733,6917.898,95.438,541.805,537.721,0.0
52606.0,STARLINK-3928,PAYLOAD,2022-12-20 11:41:17,15.08833241,0.0002967,53.2179,154.8101,43.6836,316.439,4.958e-05,5e-06,0.0,0 STARLINK-3928,1 52606U 22052J   22354.48700396  .00000500  00000-0  49580-4 0  9998,2 52606  53.2179 154.8101 0002967  43.6836 316.4390 15.08833241 33447,6917.901,95.438,541.819,537.714,0.0
52606.0,STARLINK-3928,PAYLOAD,2022-12-20 21:13:35,15.088382800000002,0.0002964,53.2178,153.0261,44.5293,315.5937,8.0146e-05,9.87e-06,0.0,0 STARLINK-3928,1 52606U 22052J   22354.88444073  .00000987  00000-0  80146-4 0  9991,2 52606  53.2178 153.0261 0002964  44.5293 315.5937 15.08838280 33870,6917.886,95.438,541.8009999999998,537.7,0.0
52606.0,STARLINK-3928,PAYLOAD,2022-12-21 22:39:46,15.08837382,0.0002977,53.2183,148.2681,44.9166,315.2066,-1.8022e-05,-5.75e-06,0.0,0 STARLINK-3928,1 52606U 22052J   22355.94428779 -.00000575  00000-0 -18022-4 0  9993,2 52606  53.2183 148.2681 0002977  44.9166 315.2066 15.08837382 34036,6917.888000000001,95.438,541.813,537.694,0.0
52606.0,STARLINK-3928,PAYLOAD,2022-12-22 03:25:55,15.08847116,0.0003088,53.2187,147.3756,45.3713,314.7531,-0.00010174,-1.908e-05,0.0,0 STARLINK-3928,1 52606U 22052J   22356.14300397 -.00001908  00000-0 -10174-3 0  9991,2 52606  53.2187 147.3756 0003088  45.3713 314.7531 15.08847116 34060,6917.859,95.437,541.86,537.587,0.0
52606.0,STARLINK-3928,PAYLOAD,2022-12-22 16:09:00,15.08844637,0.0002981,53.2188,144.9965,47.0938,313.0304,8.2569e-05,1.026e-05,0.0,0 STARLINK-3928,1 52606U 22052J   22356.67292205  .00001026  00000-0  82569-4 0  9994,2 52606  53.2188 144.9965 0002981  47.0938 313.0304 15.08844637 33777,6917.866,95.437,541.793,537.669,0.0
52606.0,STARLINK-3928,PAYLOAD,2022-12-23 09:38:15,15.08837528,0.0002463,53.2182,141.72299999999996,56.327,303.7957,6.8413e-05,8.01e-06,0.0,0 STARLINK-3928,1 52606U 22052J   22357.40156399  .00000801  00000-0  68413-4 0  9991,2 52606  53.2182 141.7230 0002463  56.3270 303.7957 15.08837528 34253,6917.888000000001,95.438,541.457,538.049,0.0
52606.0,STARLINK-3928,PAYLOAD,2022-12-23 14:24:24,15.08839107,0.0002775,53.2178,140.8337,49.6196,310.5038,6.251e-05,7.06e-06,0.0,0 STARLINK-3928,1 52606U 22052J   22357.60028421  .00000706  00000-0  62510-4 0  9993,2 52606  53.2178 140.8337 0002775  49.6196 310.5038 15.08839107 33917,6917.8830000000025,95.438,541.668,537.828,0.0
52606.0,STARLINK-3928,PAYLOAD,2022-12-24 03:07:29,15.0884418,0.000257,53.2177,138.4537,55.1874,304.936,0.00010347,1.359e-05,0.0,0 STARLINK-3928,1 52606U 22052J   22358.13019842  .00001359  00000-0  10347-3 0  9994,2 52606  53.2177 138.4537 0002570  55.1874 304.9360 15.08844180 34361,6917.868,95.437,541.511,537.955,0.0
52606.0,STARLINK-3928,PAYLOAD,2022-12-24 20:36:43,15.08845923,0.0003003,53.2164,135.1865,44.7432,315.3802,-3.6655e-05,-8.72e-06,0.0,0 STARLINK-3928,1 52606U 22052J   22358.85883952 -.00000872  00000-0 -36655-4 0  9996,2 52606  53.2164 135.1865 0003003  44.7432 315.3802 15.08845923 34106,6917.861999999999,95.437,541.805,537.65,0.0
52606.0,STARLINK-3928,PAYLOAD,2022-12-25 09:19:49,15.08837053,0.0003232,53.2175,132.8079,41.9152,318.2087,1.3638e-05,-7.2e-07,0.0,0 STARLINK-3928,1 52606U 22052J   22359.38876385 -.00000072  00000-0  13638-4 0  9994,2 52606  53.2175 132.8079 0003232  41.9152 318.2087 15.08837053 34552,6917.889,95.438,541.99,537.519,0.0
52606.0,STARLINK-3928,PAYLOAD,2022-12-25 12:30:36,15.08830886,0.0002593,53.2195,132.2097,45.2675,314.8528,-0.00011801,-2.166e-05,0.0,0 STARLINK-3928,1 52606U 22052J   22359.52125046 -.00002166  00000-0 -11801-3 0  9997,2 52606  53.2195 132.2097 0002593  45.2675 314.8528 15.08830886 34575,6917.908,95.438,541.567,537.979,0.0
52606.0,STARLINK-3928,PAYLOAD,2022-12-25 18:52:09,15.08826454,0.0002893,53.2196,131.0209,42.8755,317.2462,-0.00014634,-2.616e-05,0.0,0 STARLINK-3928,1 52606U 22052J   22359.78621695 -.00002616  00000-0 -14634-3 0  9993,2 52606  53.2196 131.0209 0002893  42.8755 317.2462 15.08826454 34247,6917.922,95.438,541.788,537.785,0.0
52606.0,STARLINK-3928,PAYLOAD,2022-12-26 20:18:18,15.08842335,0.0002705,53.2187,126.2628,42.154,317.966,-1.3877e-06,-3.11e-06,0.0,0 STARLINK-3928,1 52606U 22052J   22360.84604561 -.00000311  00000-0 -13877-5 0  9995,2 52606  53.2187 126.2628 0002705  42.1540 317.9660 15.08842335 34406,6917.873000000001,95.437,541.61,537.867,0.0
52606.0,STARLINK-3928,PAYLOAD,2022-12-27 01:04:26,15.08860823,0.0002658,53.2181,125.3716,35.4548,324.6620000000001,-3.2335e-05,-8.03e-06,0.0,0 STARLINK-3928,1 52606U 22052J   22361.04475422 -.00000803  00000-0 -32335-4 0  9995,2 52606  53.2181 125.3716 0002658  35.4548 324.6620 15.08860823 34805,6917.816999999999,95.436,541.52,537.8430000000002,0.0
52606.0,STARLINK-3928,PAYLOAD,2022-12-27 09:01:21,15.08878138,0.0003091,53.2179,123.8851,41.3422,318.7804,-0.00025421,-4.337e-05,0.0,0 STARLINK-3928,1 52606U 22052J   22361.37594596 -.00004337  00000-0 -25421-3 0  9998,2 52606  53.2179 123.8851 0003091  41.3422 318.7804 15.08878138 34855,6917.764,95.435,541.7669999999998,537.491,0.0
52606.0,STARLINK-3928,PAYLOAD,2022-12-27 15:22:55,15.08840467,0.0002853,53.2181,122.6955,42.1821,317.9391,0.0002157,3.146e-05,0.0,0 STARLINK-3928,1 52606U 22052J   22361.64091958  .00003146  00000-0  21570-3 0  9998,2 52606  53.2181 122.6955 0002853  42.1821 317.9391 15.08840467 34897,6917.879,95.438,541.7180000000002,537.77,0.0
52606.0,STARLINK-3928,PAYLOAD,2022-12-28 08:52:10,15.08845988,0.0002718,53.2175,119.4251,41.5551,318.5647,1.1484e-05,-1.06e-06,0.0,0 STARLINK-3928,1 52606U 22052J   22362.36956286 -.00000106  00000-0  11484-4 0  9990,2 52606  53.2175 119.4251 0002718  41.5551 318.5647 15.08845988 34632,6917.861999999999,95.437,541.607,537.847,0.0
52606.0,STARLINK-3928,PAYLOAD,2022-12-29 00:46:03,15.08829041,0.0002753,53.2174,116.4513,42.4208,317.6997,-0.00012014,-2.2e-05,0.0,0 STARLINK-3928,1 52606U 22052J   22363.03197925 -.00002200  00000-0 -12014-3 0  9999,2 52606  53.2174 116.4513 0002753  42.4208 317.6997 15.08829041 35100,6917.9140000000025,95.438,541.683,537.874,0.0
52606.0,STARLINK-3928,PAYLOAD,2022-12-29 07:07:35,15.08830698,0.0002816,53.2173,115.2617,42.4277,317.6932,-0.00016203,-2.866e-05,0.0,0 STARLINK-3928,1 52606U 22052J   22363.29694068 -.00002866  00000-0 -16203-3 0  9999,2 52606  53.2173 115.2617 0002816  42.4277 317.6932 15.08830698 34778,6917.909000000002,95.438,541.722,537.826,0.0
52606.0,STARLINK-3928,PAYLOAD,2022-12-30 06:58:22,15.08827563,0.0002904999999999,53.2211,110.8046,44.4876,315.6349,0.00011171,1.489e-05,0.0,0 STARLINK-3928,1 52606U 22052J   22364.29053730  .00001489  00000-0  11171-3 0  9992,2 52606  53.2211 110.8046 0002905  44.4876 315.6349 15.08827563 35299,6917.918000000002,95.438,541.793,537.774,0.0
52606.0,STARLINK-3928,PAYLOAD,2022-12-30 13:19:54,15.08841299,0.0002787,53.2199,109.6139,42.8892,317.2317,0.00020507,2.977e-05,0.0,0 STARLINK-3928,1 52606U 22052J   22364.55548793  .00002977  00000-0  20507-3 0  9995,2 52606  53.2199 109.6139 0002787  42.8892 317.2317 15.08841299 34969,6917.876,95.437,541.669,537.813,0.0
52606.0,STARLINK-3928,PAYLOAD,2022-12-30 16:30:39,15.08849946,0.0002824,53.2184,109.0171,37.1959,322.9229,0.00025093,3.709e-05,0.0,0 STARLINK-3928,1 52606U 22052J   22364.68796176  .00003709  00000-0  25093-3 0  9998,2 52606  53.2184 109.0171 0002824  37.1959 322.9229 15.08849946 35352,6917.85,95.437,541.669,537.761,0.0
52606.0,STARLINK-3928,PAYLOAD,2022-12-31 00:27:34,15.0885857,0.0002733,53.2183,107.5305,37.7114,322.407,0.00032076,4.823e-05,0.0,0 STARLINK-3928,1 52606U 22052J   22365.01915139  .00004823  00000-0  32076-3 0  9995,2 52606  53.2183 107.5305 0002733  37.7114 322.4070 15.08858570 35409,6917.824000000001,95.436,541.5790000000002,537.798,0.0
